[{"OBJECT_NAME":"TDRS 11","OBJECT_ID":"2013-004A","EPOCH":"2026-04-27T04:33:42.556896","MEAN_MOTION":1.00264713,"ECCENTRICITY":0.00054109,"INCLINATION":3.4466,"RA_OF_ASC_NODE":30.3637,"ARG_OF_PERICENTER":1.3684,"MEAN_ANOMALY":77.7005,"EPHEMERIS_TYPE":0,"CLASSIFICATION_TYPE":"U","NORAD_CAT_ID":39070,"ELEMENT_SET_NO":999,"REV_AT_EPOCH":4618,"BSTAR":0,"MEAN_MOTION_DOT":7.1e-7,"MEAN_MOTION_DDOT":0},{"OBJECT_NAME":"TDRS 12","OBJECT_ID":"2014-004A","EPOCH":"2026-04-27T05:46:03.998784","MEAN_MOTION":1.00269448,"ECCENTRICITY":0.00018722,"INCLINATION":3.9291,"RA_OF_ASC_NODE":18.2362,"ARG_OF_PERICENTER":246.33,"MEAN_ANOMALY":356.2723,"EPHEMERIS_TYPE":0,"CLASSIFICATION_TYPE":"U","NORAD_CAT_ID":39504,"ELEMENT_SET_NO":999,"REV_AT_EPOCH":4376,"BSTAR":0,"MEAN_MOTION_DOT":-2.79e-6,"MEAN_MOTION_DDOT":0},{"OBJECT_NAME":"GPM-CORE","OBJECT_ID":"2014-009C","EPOCH":"2026-04-27T06:23:27.278880","MEAN_MOTION":15.44672095,"ECCENTRICITY":0.00121986,"INCLINATION":64.9708,"RA_OF_ASC_NODE":118.7684,"ARG_OF_PERICENTER":260.6469,"MEAN_ANOMALY":99.3293,"EPHEMERIS_TYPE":0,"CLASSIFICATION_TYPE":"U","NORAD_CAT_ID":39574,"ELEMENT_SET_NO":999,"REV_AT_EPOCH":68994,"BSTAR":0.00018158146,"MEAN_MOTION_DOT":8.287e-5,"MEAN_MOTION_DDOT":0},{"OBJECT_NAME":"MMS 1","OBJECT_ID":"2015-011A","EPOCH":"2026-04-27T08:00:01.000224","MEAN_MOTION":0.2834567,"ECCENTRICITY":0.83630473,"INCLINATION":71.413,"RA_OF_ASC_NODE":349.4858,"ARG_OF_PERICENTER":166.3268,"MEAN_ANOMALY":150.9163,"EPHEMERIS_TYPE":0,"CLASSIFICATION_TYPE":"U","NORAD_CAT_ID":40482,"ELEMENT_SET_NO":999,"REV_AT_EPOCH":135,"BSTAR":0,"MEAN_MOTION_DOT":-5.26e-6,"MEAN_MOTION_DDOT":0},{"OBJECT_NAME":"MMS 2","OBJECT_ID":"2015-011B","EPOCH":"2026-04-27T08:00:01.000224","MEAN_MOTION":0.28345673,"ECCENTRICITY":0.83638049,"INCLINATION":71.4131,"RA_OF_ASC_NODE":349.488,"ARG_OF_PERICENTER":166.3327,"MEAN_ANOMALY":150.902,"EPHEMERIS_TYPE":0,"CLASSIFICATION_TYPE":"U","NORAD_CAT_ID":40483,"ELEMENT_SET_NO":999,"REV_AT_EPOCH":135,"BSTAR":0,"MEAN_MOTION_DOT":-5.26e-6,"MEAN_MOTION_DDOT":0},{"OBJECT_NAME":"MMS 3","OBJECT_ID":"2015-011C","EPOCH":"2026-04-27T08:00:01.000224","MEAN_MOTION":0.2834607,"ECCENTRICITY":0.83632271,"INCLINATION":71.4166,"RA_OF_ASC_NODE":349.4925,"ARG_OF_PERICENTER":166.326,"MEAN_ANOMALY":150.9105,"EPHEMERIS_TYPE":0,"CLASSIFICATION_TYPE":"U","NORAD_CAT_ID":40484,"ELEMENT_SET_NO":999,"REV_AT_EPOCH":135,"BSTAR":0,"MEAN_MOTION_DOT":-5.26e-6,"MEAN_MOTION_DDOT":0},{"OBJECT_NAME":"MMS 4","OBJECT_ID":"2015-011D","EPOCH":"2026-04-27T08:00:01.000224","MEAN_MOTION":0.28345623,"ECCENTRICITY":0.83625907,"INCLINATION":71.413,"RA_OF_ASC_NODE":349.4881,"ARG_OF_PERICENTER":166.3346,"MEAN_ANOMALY":150.8913,"EPHEMERIS_TYPE":0,"CLASSIFICATION_TYPE":"U","NORAD_CAT_ID":40485,"ELEMENT_SET_NO":999,"REV_AT_EPOCH":135,"BSTAR":0,"MEAN_MOTION_DOT":-5.26e-6,"MEAN_MOTION_DDOT":0},{"OBJECT_NAME":"TDRS 13","OBJECT_ID":"2017-047A","EPOCH":"2026-04-26T19:47:38.565888","MEAN_MOTION":1.00271933,"ECCENTRICITY":0.00129267,"INCLINATION":3.4407,"RA_OF_ASC_NODE":1.4594,"ARG_OF_PERICENTER":98.4221,"MEAN_ANOMALY":40.3722,"EPHEMERIS_TYPE":0,"CLASSIFICATION_TYPE":"U","NORAD_CAT_ID":42915,"ELEMENT_SET_NO":999,"REV_AT_EPOCH":3183,"BSTAR":0,"MEAN_MOTION_DOT":-1.1e-6,"MEAN_MOTION_DDOT":0},{"OBJECT_NAME":"NOAA 20 (JPSS-1)","OBJECT_ID":"2017-073A","EPOCH":"2026-04-27T06:02:09.606048","MEAN_MOTION":14.1954781,"ECCENTRICITY":0.00020924,"INCLINATION":98.7747,"RA_OF_ASC_NODE":57.1734,"ARG_OF_PERICENTER":71.4766,"MEAN_ANOMALY":288.6637,"EPHEMERIS_TYPE":0,"CLASSIFICATION_TYPE":"U","NORAD_CAT_ID":43013,"ELEMENT_SET_NO":999,"REV_AT_EPOCH":43724,"BSTAR":4.8166119e-5,"MEAN_MOTION_DOT":5.7e-7,"MEAN_MOTION_DDOT":0}]
